{
  "type": "FeatureCollection",
  "features": [
    {
      "type": "Feature",
      "properties": {
        "norad_id": 59626,
        "name": "LEGION 2",
        "group": "resource",
        "lat": 75.79359800215478,
        "lon": -87.49028071516355,
        "alt_km": 513.1832076375431,
        "timestamp": "2025-12-12T07:43:20.161528+00:00",
        "meta_object_name": "LEGION 2",
        "meta_object_id": "2024-081B",
        "meta_epoch": "2025-12-11T21:46:19.050816",
        "meta_mean_motion": 15.16477995,
        "meta_eccentricity": 0.00057782,
        "meta_inclination": 97.5212,
        "meta_ra_of_asc_node": 60.6395,
        "meta_arg_of_pericenter": 296.9578,
        "meta_mean_anomaly": 63.1065,
        "meta_ephemeris_type": 0,
        "meta_classification_type": "U",
        "meta_norad_cat_id": 59626,
        "meta_element_set_no": 999,
        "meta_rev_at_epoch": 8915,
        "meta_bstar": 0.00041609596,
        "meta_mean_motion_dot": 8.039e-05,
        "meta_mean_motion_ddot": 0,
        "tle_line1": "1 59626U 24081B   25345.90716494  .00008039  00000+0  41610-3 0  9996",
        "tle_line2": "2 59626  97.5212  60.6395 0005778 296.9578  63.1065 15.16477995 89156"
      },
      "geometry": {
        "type": "Point",
        "coordinates": [
          -87.49028071516355,
          75.79359800215478
        ]
      }
    },
    {
      "type": "Feature",
      "properties": {
        "norad_id": 60182,
        "name": "ALOS-4 (DAICHI-4)",
        "group": "resource",
        "lat": 4.9298357656907426,
        "lon": -98.13721131830815,
        "alt_km": 633.0984512126961,
        "timestamp": "2025-12-12T07:43:20.161538+00:00",
        "meta_object_name": "ALOS-4 (DAICHI-4)",
        "meta_object_id": "2024-123A",
        "meta_epoch": "2025-12-10T20:50:51.532800",
        "meta_mean_motion": 14.79478132,
        "meta_eccentricity": 0.0001419,
        "meta_inclination": 97.9225,
        "meta_ra_of_asc_node": 79.7424,
        "meta_arg_of_pericenter": 101.2045,
        "meta_mean_anomaly": 258.9326,
        "meta_ephemeris_type": 0,
        "meta_classification_type": "U",
        "meta_norad_cat_id": 60182,
        "meta_element_set_no": 999,
        "meta_rev_at_epoch": 7803,
        "meta_bstar": 0.00039567,
        "meta_mean_motion_dot": 2.905e-05,
        "meta_mean_motion_ddot": 0,
        "tle_line1": "1 60182U 24123A   25344.86865200  .00002905  00000+0  39567-3 0  9990",
        "tle_line2": "2 60182  97.9225  79.7424 0001419 101.2045 258.9326 14.79478132 78033"
      },
      "geometry": {
        "type": "Point",
        "coordinates": [
          -98.13721131830815,
          4.9298357656907426
        ]
      }
    },
    {
      "type": "Feature",
      "properties": {
        "norad_id": 60452,
        "name": "LEGION 3",
        "group": "resource",
        "lat": 22.24623656867717,
        "lon": 108.21239508782548,
        "alt_km": 508.7047202388676,
        "timestamp": "2025-12-12T07:43:20.161549+00:00",
        "meta_object_name": "LEGION 3",
        "meta_object_id": "2024-146A",
        "meta_epoch": "2025-12-11T23:09:53.997120",
        "meta_mean_motion": 15.15747852,
        "meta_eccentricity": 0.0014796,
        "meta_inclination": 45.0018,
        "meta_ra_of_asc_node": 314.2851,
        "meta_arg_of_pericenter": 194.5448,
        "meta_mean_anomaly": 165.5007,
        "meta_ephemeris_type": 0,
        "meta_classification_type": "U",
        "meta_norad_cat_id": 60452,
        "meta_element_set_no": 999,
        "meta_rev_at_epoch": 7361,
        "meta_bstar": 0.00041411498,
        "meta_mean_motion_dot": 7.795e-05,
        "meta_mean_motion_ddot": 0,
        "tle_line1": "1 60452U 24146A   25345.96520830  .00007795  00000+0  41411-3 0  9997",
        "tle_line2": "2 60452  45.0018 314.2851 0014796 194.5448 165.5007 15.15747852 73619"
      },
      "geometry": {
        "type": "Point",
        "coordinates": [
          108.21239508782548,
          22.24623656867717
        ]
      }
    },
    {
      "type": "Feature",
      "properties": {
        "norad_id": 60453,
        "name": "LEGION 4",
        "group": "resource",
        "lat": 24.30319805148247,
        "lon": -162.70561272933682,
        "alt_km": 521.2588813849452,
        "timestamp": "2025-12-12T07:43:20.161559+00:00",
        "meta_object_name": "LEGION 4",
        "meta_object_id": "2024-146B",
        "meta_epoch": "2025-12-11T13:41:22.476192",
        "meta_mean_motion": 15.15804314,
        "meta_eccentricity": 0.00095721,
        "meta_inclination": 45.0386,
        "meta_ra_of_asc_node": 48.1484,
        "meta_arg_of_pericenter": 305.0716,
        "meta_mean_anomaly": 54.9265,
        "meta_ephemeris_type": 0,
        "meta_classification_type": "U",
        "meta_norad_cat_id": 60453,
        "meta_element_set_no": 999,
        "meta_rev_at_epoch": 7240,
        "meta_bstar": 0.00042395412,
        "meta_mean_motion_dot": 7.988e-05,
        "meta_mean_motion_ddot": 0,
        "tle_line1": "1 60453U 24146B   25345.57039903  .00007988  00000+0  42395-3 0  9997",
        "tle_line2": "2 60453  45.0386  48.1484 0009572 305.0716  54.9265 15.15804314 72406"
      },
      "geometry": {
        "type": "Point",
        "coordinates": [
          -162.70561272933682,
          24.30319805148247
        ]
      }
    },
    {
      "type": "Feature",
      "properties": {
        "norad_id": 60989,
        "name": "SENTINEL-2C",
        "group": "resource",
        "lat": 11.524754525636522,
        "lon": 57.048674263908644,
        "alt_km": 790.2294497108487,
        "timestamp": "2025-12-12T07:43:20.161569+00:00",
        "meta_object_name": "SENTINEL-2C",
        "meta_object_id": "2024-157A",
        "meta_epoch": "2025-12-11T19:55:10.878528",
        "meta_mean_motion": 14.30817024,
        "meta_eccentricity": 0.0001198,
        "meta_inclination": 98.5683,
        "meta_ra_of_asc_node": 58.3257,
        "meta_arg_of_pericenter": 97.3806,
        "meta_mean_anomaly": 262.7513,
        "meta_ephemeris_type": 0,
        "meta_classification_type": "U",
        "meta_norad_cat_id": 60989,
        "meta_element_set_no": 999,
        "meta_rev_at_epoch": 6619,
        "meta_bstar": 0.00010652891,
        "meta_mean_motion_dot": 2.36e-06,
        "meta_mean_motion_ddot": 0,
        "tle_line1": "1 60989U 24157A   25345.82998702  .00000236  00000+0  10653-3 0  9993",
        "tle_line2": "2 60989  98.5683  58.3257 0001198  97.3806 262.7513 14.30817024 66193"
      },
      "geometry": {
        "type": "Point",
        "coordinates": [
          57.048674263908644,
          11.524754525636522
        ]
      }
    },
    {
      "type": "Feature",
      "properties": {
        "norad_id": 61735,
        "name": "IONOSFERA-M 1",
        "group": "resource",
        "lat": -67.99426330969024,
        "lon": -121.45230211489843,
        "alt_km": 823.4454493812118,
        "timestamp": "2025-12-12T07:43:20.161579+00:00",
        "meta_object_name": "IONOSFERA-M 1",
        "meta_object_id": "2024-199A",
        "meta_epoch": "2025-12-11T23:36:36.532224",
        "meta_mean_motion": 14.2271385,
        "meta_eccentricity": 0.0001001,
        "meta_inclination": 98.7404,
        "meta_ra_of_asc_node": 215.8378,
        "meta_arg_of_pericenter": 23.4408,
        "meta_mean_anomaly": 336.6815,
        "meta_ephemeris_type": 0,
        "meta_classification_type": "U",
        "meta_norad_cat_id": 61735,
        "meta_element_set_no": 999,
        "meta_rev_at_epoch": 10108,
        "meta_bstar": 7.2815017e-05,
        "meta_mean_motion_dot": 1.19e-06,
        "meta_mean_motion_ddot": 0,
        "tle_line1": "1 61735U 24199A   25345.98375616  .00000119  00000+0  72815-4 0  9998",
        "tle_line2": "2 61735  98.7404 215.8378 0001001  23.4408 336.6815 14.22713850101088"
      },
      "geometry": {
        "type": "Point",
        "coordinates": [
          -121.45230211489843,
          -67.99426330969024
        ]
      }
    },
    {
      "type": "Feature",
      "properties": {
        "norad_id": 61736,
        "name": "IONOSFERA-M 2",
        "group": "resource",
        "lat": 65.44857289938479,
        "lon": 55.76548713899161,
        "alt_km": 808.597905621782,
        "timestamp": "2025-12-12T07:43:20.161590+00:00",
        "meta_object_name": "IONOSFERA-M 2",
        "meta_object_id": "2024-199B",
        "meta_epoch": "2025-12-12T00:26:30.052032",
        "meta_mean_motion": 14.22716015,
        "meta_eccentricity": 0.0001624,
        "meta_inclination": 98.7402,
        "meta_ra_of_asc_node": 215.7847,
        "meta_arg_of_pericenter": 111.7276,
        "meta_mean_anomaly": 248.4075,
        "meta_ephemeris_type": 0,
        "meta_classification_type": "U",
        "meta_norad_cat_id": 61736,
        "meta_element_set_no": 999,
        "meta_rev_at_epoch": 10421,
        "meta_bstar": 7.267503e-05,
        "meta_mean_motion_dot": 1.19e-06,
        "meta_mean_motion_ddot": 0,
        "tle_line1": "1 61736U 24199B   25346.01840338  .00000119  00000+0  72675-4 0  9996",
        "tle_line2": "2 61736  98.7402 215.7847 0001624 111.7276 248.4075 14.22716015104214"
      },
      "geometry": {
        "type": "Point",
        "coordinates": [
          55.76548713899161,
          65.44857289938479
        ]
      }
    }
  ]
}